#aV2006  2 28  0  0   .00000000      96 DD+AD WGS84 FIT  NGA
## 1364 172800.00000000   900.00000000 53794  .0000000000000
+   29     1  2  3  4  5  6  7  8  9 10 11 13 14 15 16 17 18
+         19 20 21 22 23 24 25 26 27 28 29 30  0  0  0  0  0
+          0  0  0  0  0  0  0  0  0  0  0  0  0  0  0  0  0
+          0  0  0  0  0  0  0  0  0  0  0  0  0  0  0  0  0
+          0  0  0  0  0  0  0  0  0  0  0  0  0  0  0  0  0
++         0  0  0  0  0  0  0  0  0  0  0  0  0  0  0  0  0
++         0  0  0  0  0  0  0  0  0  0  0  0  0  0  0  0  0
++         0  0  0  0  0  0  0  0  0  0  0  0  0  0  0  0  0
++         0  0  0  0  0  0  0  0  0  0  0  0  0  0  0  0  0
++         0  0  0  0  0  0  0  0  0  0  0  0  0  0  0  0  0
%c cc cc ccc ccc cccc cccc cccc cccc ccccc ccccc ccccc ccccc
%c cc cc ccc ccc cccc cccc cccc cccc ccccc ccccc ccccc ccccc
%f  0.0000000  0.000000000  0.00000000000  0.000000000000000
%f  0.0000000  0.000000000  0.00000000000  0.000000000000000
%i    0    0    0    0      0      0      0      0         0
%i    0    0    0    0      0      0      0      0         0
/*      NGA, ST. LOUIS,MO.                                  
/*   EPHEMERIS COMPUTED FROM  3 DAYS OF DATA                
/* CCCCCCCCCCCCCCCCCCCCCCCCCCCCCCCCCCCCCCCCCCCCCCCCCCCCCCCCC
/* CCCCCCCCCCCCCCCCCCCCCCCCCCCCCCCCCCCCCCCCCCCCCCCCCCCCCCCCC
*  2006  2 28  1 45   .00000000                                                 
P  1 -19364.273060 -15733.252546   9365.978528     38.949272                    
V  1  11226.210691   3270.177396  29286.355992       .020227                    
P  2  12753.287138  18698.084560 -14314.278830    -16.723394                    
V  2    149.253073  17798.398316  23663.250134       .016563                    
P  3 -23507.268509 -11600.806385  -5339.114872     78.106802                    
V  3   7305.044588  -1367.757088 -29802.366243       .028733                    
P  4   6631.940258  24960.285563  -5375.707956    162.585575                    
V  4  -2567.851877   7185.195434  30749.852997       .114159                    
P  5  22098.801819 -12157.357822   7855.387709   -459.713653                    
V  5  -5342.515575   9477.418897  29149.818003       .847985                    
P  6  14131.256307 -10313.010665 -19814.143027    362.825651                    
V  6  23520.026457  10338.700373  11204.557605       .320444                    
P  7  24346.216795    268.748578 -10554.276640    504.351704                    
V  7  12097.789626   7479.768034  26982.619537       .074005                    
P  8   -140.615320  26115.150720  -3593.227594    -57.966768                    
V  8  -3149.865107  -4167.390023 -31822.440514      -.012560                    
P  9  14778.540915  -2563.005497  21383.926191      9.730894                    
V  9   4867.363073  28027.846078    278.936284       .016822                    
P 10  17234.229533   4154.049171 -19963.466988     79.389185                    
V 10 -19705.458779  15442.188412 -13552.053165       .006426                    
P 11 -15840.563022   4702.451356  20727.476989    310.012873                    
V 11  -7315.017871 -25744.200843    496.728553       .027675                    
P 13 -12018.357098  10074.845877 -21499.936250     44.196747                    
V 13 -24532.770732 -11409.820464   8456.000887       .025003                    
P 14  -6985.997535 -16926.292396  19324.367886    -18.702365                    
V 14  22730.390122   8680.056442  15833.114156       .006637                    
P 15   1486.942497 -26018.889071  -4091.168509    572.679135                    
V 15   3445.461731   4867.799280 -31357.294963       .060865                    
P 16 -11535.944867 -10137.268649 -21593.652293     28.628566                    
V 16  21890.968922 -16818.031163  -3695.168780       .019236                    
P 17   5295.620363  17081.203080  19643.543712     59.236560                    
V 17 -23506.769913  -8487.301330  13618.601421       .070909                    
P 18  16389.442562 -18844.879789   8688.502007   -223.140499                    
V 18  10644.338527  -3948.348993 -29246.978711      -.020525                    
P 19 -24648.548315  -5427.348042   8426.437344    -20.373968                    
V 19  -8337.816678  -6988.300678 -29206.422891       .010794                    
P 20 -22867.059199  11179.603720   7439.258149    -31.756429                    
V 20   5863.484854  -8054.375932  29811.150033       .008417                    
P 21   6962.894186 -22180.600665 -12317.944552      9.281785                    
V 21   4541.945122  15597.852675 -25938.108240       .032592                    
P 22   4375.047523 -18754.728628  18448.794057     71.972232                    
V 22  19940.362384 -11796.115554 -16862.114942       .031901                    
P 23 -21882.436494   2198.276333 -15088.229732    148.861271                    
V 23 -16814.177117  -8869.488069  23081.091543      -.013595                    
P 24  -3996.851633  24807.113918   8448.421253     88.971711                    
V 24  -3555.680419 -10229.850482  29416.987042       .029853                    
P 25 -10336.085556 -23247.760316  -7014.701888    -68.402016                    
V 25    937.812742  -9926.232915  29916.815058       .358654                    
P 26  25159.452238   8622.828351   3545.297423    -47.847407                    
V 26   3877.310757   3289.440164 -31568.656446      -.090640                    
P 27  -4675.289887  22437.068728 -12513.880320     37.738494                    
V 27  -5968.385399 -16164.703494 -25893.249713       .016378                    
P 28  -7052.557165  19581.464979  16567.927598     32.462395                    
V 28 -17814.932484  10663.515003 -20868.516715      -.007862                    
P 29  24813.160182   9869.322616    202.409072    546.713717                    
V 29   -713.917469   1650.156318 -32128.088212       .111672                    
P 30  19752.626719 -17617.382781  -1494.380320     26.954970                    
V 30   3389.315873   1634.073242  31395.541905       .012845                    
EOF
